{"type": "FeatureCollection", "features": [{"type": "Feature", "geometry": {"type": "Point", "coordinates": [55.4721851, 25.2362939]}, "properties": {"title": "Station: Quranic Park", "description": "Available Bikes: 15", "marker-color": "#00ff00", "marker-symbol": "bicycle", "marker-size": "medium", "station_id": "2"}}, {"type": "Feature", "geometry": {"type": "Point", "coordinates": [55.14872, 25.079489]}, "properties": {"title": "Station: Damac Metro Station", "description": "Available Bikes: 21", "marker-color": "#00ff00", "marker-symbol": "bicycle", "marker-size": "medium", "station_id": "4"}}, {"type": "Feature", "geometry": {"type": "Point", "coordinates": [55.153277, 25.079503]}, "properties": {"title": "Station: Jlt Cluster X", "description": "Available Bikes: 8", "marker-color": "#00ff00", "marker-symbol": "bicycle", "marker-size": "medium", "station_id": "5"}}, {"type": "Feature", "geometry": {"type": "Point", "coordinates": [55.152536, 25.078167]}, "properties": {"title": "Station: Jlt Cluster V", "description": "Available Bikes: 12", "marker-color": "#00ff00", "marker-symbol": "bicycle", "marker-size": "medium", "station_id": "6"}}, {"type": "Feature", "geometry": {"type": "Point", "coordinates": [55.147944, 25.077049]}, "properties": {"title": "Station: JLT Cluster R", "description": "Available Bikes: 5", "marker-color": "#00ff00", "marker-symbol": "bicycle", "marker-size": "medium", "station_id": "7"}}, {"type": "Feature", "geometry": {"type": "Point", "coordinates": [55.144619, 25.074481]}, "properties": {"title": "Station: JLT Cluster O", "description": "Available Bikes: 6", "marker-color": "#00ff00", "marker-symbol": "bicycle", "marker-size": "medium", "station_id": "8"}}, {"type": "Feature", "geometry": {"type": "Point", "coordinates": [55.145576, 25.075638]}, "properties": {"title": "Station: Jlt Cluster P", "description": "Available Bikes: 23", "marker-color": "#00ff00", "marker-symbol": "bicycle", "marker-size": "medium", "station_id": "9"}}, {"type": "Feature", "geometry": {"type": "Point", "coordinates": [55.1395886, 25.0705399]}, "properties": {"title": "Station: DMCC METRO STATION", "description": "Available Bikes: 32", "marker-color": "#00ff00", "marker-symbol": "bicycle", "marker-size": "medium", "station_id": "10"}}, {"type": "Feature", "geometry": {"type": "Point", "coordinates": [55.141782, 25.071027]}, "properties": {"title": "Station: Jlt Cluster D", "description": "Available Bikes: 12", "marker-color": "#00ff00", "marker-symbol": "bicycle", "marker-size": "medium", "station_id": "11"}}, {"type": "Feature", "geometry": {"type": "Point", "coordinates": [55.143165, 25.070877]}, "properties": {"title": "Station: Jlt Cluster G", "description": "Available Bikes: 9", "marker-color": "#00ff00", "marker-symbol": "bicycle", "marker-size": "medium", "station_id": "12"}}, {"type": "Feature", "geometry": {"type": "Point", "coordinates": [55.143597, 25.069599]}, "properties": {"title": "Station: Jlt Cluster H", "description": "Available Bikes: 14", "marker-color": "#00ff00", "marker-symbol": "bicycle", "marker-size": "medium", "station_id": "13"}}, {"type": "Feature", "geometry": {"type": "Point", "coordinates": [55.141002, 25.067902]}, "properties": {"title": "Station: Jlt Cluster J", "description": "Available Bikes: 9", "marker-color": "#00ff00", "marker-symbol": "bicycle", "marker-size": "medium", "station_id": "14"}}, {"type": "Feature", "geometry": {"type": "Point", "coordinates": [55.138814, 25.065194]}, "properties": {"title": "Station: Jlt Cluster M", "description": "Available Bikes: 11", "marker-color": "#00ff00", "marker-symbol": "bicycle", "marker-size": "medium", "station_id": "15"}}, {"type": "Feature", "geometry": {"type": "Point", "coordinates": [55.137807, 25.067081]}, "properties": {"title": "Station: Jlt Cluster A", "description": "Available Bikes: 12", "marker-color": "#00ff00", "marker-symbol": "bicycle", "marker-size": "medium", "station_id": "16"}}, {"type": "Feature", "geometry": {"type": "Point", "coordinates": [55.14275, 25.069715]}, "properties": {"title": "Station: Jlt Cluster I", "description": "Available Bikes: 4", "marker-color": "#00ff00", "marker-symbol": "bicycle", "marker-size": "medium", "station_id": "17"}}, {"type": "Feature", "geometry": {"type": "Point", "coordinates": [55.13735, 25.071571]}, "properties": {"title": "Station: DMCC Station - Marina Side", "description": "Available Bikes: 13", "marker-color": "#00ff00", "marker-symbol": "bicycle", "marker-size": "medium", "station_id": "18"}}, {"type": "Feature", "geometry": {"type": "Point", "coordinates": [55.134381, 25.07048]}, "properties": {"title": "Station: Damac The Waves", "description": "Available Bikes: 10", "marker-color": "#00ff00", "marker-symbol": "bicycle", "marker-size": "medium", "station_id": "19"}}, {"type": "Feature", "geometry": {"type": "Point", "coordinates": [55.13258537, 25.07448173]}, "properties": {"title": "Station: Jumeirah Beach Residences 2", "description": "Available Bikes: 15", "marker-color": "#00ff00", "marker-symbol": "bicycle", "marker-size": "medium", "station_id": "20"}}, {"type": "Feature", "geometry": {"type": "Point", "coordinates": [55.14167, 25.076549]}, "properties": {"title": "Station: Dubai Marina Mall", "description": "Available Bikes: 15", "marker-color": "#00ff00", "marker-symbol": "bicycle", "marker-size": "medium", "station_id": "21"}}, {"type": "Feature", "geometry": {"type": "Point", "coordinates": [55.147152, 25.081559]}, "properties": {"title": "Station: Dubai Marina Tram", "description": "Available Bikes: 8", "marker-color": "#00ff00", "marker-symbol": "bicycle", "marker-size": "medium", "station_id": "22"}}, {"type": "Feature", "geometry": {"type": "Point", "coordinates": [55.148023, 25.090269]}, "properties": {"title": "Station: Marina Crown", "description": "Available Bikes: 8", "marker-color": "#00ff00", "marker-symbol": "bicycle", "marker-size": "medium", "station_id": "23"}}, {"type": "Feature", "geometry": {"type": "Point", "coordinates": [55.146944, 25.087611]}, "properties": {"title": "Station: Marina Heights Marina Tower", "description": "Available Bikes: 10", "marker-color": "#00ff00", "marker-symbol": "bicycle", "marker-size": "medium", "station_id": "24"}}, {"type": "Feature", "geometry": {"type": "Point", "coordinates": [55.1432373, 25.0788862]}, "properties": {"title": "Station: Radisson Blu Dubai Marina", "description": "Available Bikes: 15", "marker-color": "#00ff00", "marker-symbol": "bicycle", "marker-size": "medium", "station_id": "25"}}, {"type": "Feature", "geometry": {"type": "Point", "coordinates": [55.13824, 25.074583]}, "properties": {"title": "Station: Silverene Tower", "description": "Available Bikes: 15", "marker-color": "#00ff00", "marker-symbol": "bicycle", "marker-size": "medium", "station_id": "26"}}, {"type": "Feature", "geometry": {"type": "Point", "coordinates": [55.131751, 25.069045]}, "properties": {"title": "Station: Al Rahim Mosque Promenade", "description": "Available Bikes: 5", "marker-color": "#00ff00", "marker-symbol": "bicycle", "marker-size": "medium", "station_id": "27"}}, {"type": "Feature", "geometry": {"type": "Point", "coordinates": [55.128152, 25.07107]}, "properties": {"title": "Station: Durrat Al Marsa Tower Promenade", "description": "Available Bikes: 8", "marker-color": "#00ff00", "marker-symbol": "bicycle", "marker-size": "medium", "station_id": "28"}}, {"type": "Feature", "geometry": {"type": "Point", "coordinates": [55.138737, 25.079584]}, "properties": {"title": "Station: Intercontinental Promenade", "description": "Available Bikes: 10", "marker-color": "#00ff00", "marker-symbol": "bicycle", "marker-size": "medium", "station_id": "29"}}, {"type": "Feature", "geometry": {"type": "Point", "coordinates": [55.14269, 25.082101]}, "properties": {"title": "Station: Park Island Promenade", "description": "Available Bikes: 4", "marker-color": "#00ff00", "marker-symbol": "bicycle", "marker-size": "medium", "station_id": "31"}}, {"type": "Feature", "geometry": {"type": "Point", "coordinates": [55.1456387072989, 25.0810684148351]}, "properties": {"title": "Station: Marina Diamond 6", "description": "Available Bikes: 8", "marker-color": "#00ff00", "marker-symbol": "bicycle", "marker-size": "medium", "station_id": "33"}}, {"type": "Feature", "geometry": {"type": "Point", "coordinates": [55.127482, 25.070349]}, "properties": {"title": "Station: Umm Hassan Promenade", "description": "Available Bikes: 6", "marker-color": "#00ff00", "marker-symbol": "bicycle", "marker-size": "medium", "station_id": "34"}}, {"type": "Feature", "geometry": {"type": "Point", "coordinates": [55.152932, 25.089049]}, "properties": {"title": "Station: Careem HQ", "description": "Available Bikes: 5", "marker-color": "#00ff00", "marker-symbol": "bicycle", "marker-size": "medium", "station_id": "36"}}, {"type": "Feature", "geometry": {"type": "Point", "coordinates": [55.156642, 25.0893]}, "properties": {"title": "Station: Nakheel Station", "description": "Available Bikes: 11", "marker-color": "#00ff00", "marker-symbol": "bicycle", "marker-size": "medium", "station_id": "37"}}, {"type": "Feature", "geometry": {"type": "Point", "coordinates": [55.272318, 25.199149]}, "properties": {"title": "Station: Burj khalifa", "description": "Available Bikes: 7", "marker-color": "#00ff00", "marker-symbol": "bicycle", "marker-size": "medium", "station_id": "39"}}, {"type": "Feature", "geometry": {"type": "Point", "coordinates": [55.153192, 25.091128]}, "properties": {"title": "Station: Thuraya Tower", "description": "Available Bikes: 4", "marker-color": "#00ff00", "marker-symbol": "bicycle", "marker-size": "medium", "station_id": "41"}}, {"type": "Feature", "geometry": {"type": "Point", "coordinates": [55.152416, 25.094715]}, "properties": {"title": "Station: Media City Tram", "description": "Available Bikes: 8", "marker-color": "#00ff00", "marker-symbol": "bicycle", "marker-size": "medium", "station_id": "43"}}, {"type": "Feature", "geometry": {"type": "Point", "coordinates": [55.161066, 25.096119]}, "properties": {"title": "Station: Dubai Internet City Parking", "description": "Available Bikes: 4", "marker-color": "#00ff00", "marker-symbol": "bicycle", "marker-size": "medium", "station_id": "44"}}, {"type": "Feature", "geometry": {"type": "Point", "coordinates": [55.162139, 25.104667]}, "properties": {"title": "Station: Knowledge Village Parking", "description": "Available Bikes: 3", "marker-color": "#00ff00", "marker-symbol": "bicycle", "marker-size": "medium", "station_id": "45"}}, {"type": "Feature", "geometry": {"type": "Point", "coordinates": [55.168472, 25.104472]}, "properties": {"title": "Station: Office Park Building", "description": "Available Bikes: 7", "marker-color": "#00ff00", "marker-symbol": "bicycle", "marker-size": "medium", "station_id": "46"}}, {"type": "Feature", "geometry": {"type": "Point", "coordinates": [55.170706, 25.092371]}, "properties": {"title": "Station: Street 3A, The Greens", "description": "Available Bikes: 5", "marker-color": "#00ff00", "marker-symbol": "bicycle", "marker-size": "medium", "station_id": "47"}}, {"type": "Feature", "geometry": {"type": "Point", "coordinates": [55.172454, 25.09062]}, "properties": {"title": "Station: Street 5, The Greens", "description": "Available Bikes: 7", "marker-color": "#00ff00", "marker-symbol": "bicycle", "marker-size": "medium", "station_id": "48"}}, {"type": "Feature", "geometry": {"type": "Point", "coordinates": [55.168767, 25.093916]}, "properties": {"title": "Station: Greens Village Mall", "description": "Available Bikes: 14", "marker-color": "#00ff00", "marker-symbol": "bicycle", "marker-size": "medium", "station_id": "49"}}, {"type": "Feature", "geometry": {"type": "Point", "coordinates": [55.168783, 25.095911]}, "properties": {"title": "Station: Onyx Tower", "description": "Available Bikes: 11", "marker-color": "#00ff00", "marker-symbol": "bicycle", "marker-size": "medium", "station_id": "50"}}, {"type": "Feature", "geometry": {"type": "Point", "coordinates": [55.173333, 25.099975]}, "properties": {"title": "Station: Dubai Internet City Metro Station 2", "description": "Available Bikes: 12", "marker-color": "#00ff00", "marker-symbol": "bicycle", "marker-size": "medium", "station_id": "54"}}, {"type": "Feature", "geometry": {"type": "Point", "coordinates": [55.194677, 25.14713]}, "properties": {"title": "Station: Jumeirah Public Beach", "description": "Available Bikes: 29", "marker-color": "#00ff00", "marker-symbol": "bicycle", "marker-size": "medium", "station_id": "55"}}, {"type": "Feature", "geometry": {"type": "Point", "coordinates": [55.210708, 25.16638]}, "properties": {"title": "Station: Kite Beach", "description": "Available Bikes: 25", "marker-color": "#00ff00", "marker-symbol": "bicycle", "marker-size": "medium", "station_id": "56"}}, {"type": "Feature", "geometry": {"type": "Point", "coordinates": [55.225566, 25.185595]}, "properties": {"title": "Station: Sunset Mall", "description": "Available Bikes: 14", "marker-color": "#00ff00", "marker-symbol": "bicycle", "marker-size": "medium", "station_id": "57"}}, {"type": "Feature", "geometry": {"type": "Point", "coordinates": [55.269767, 25.180364]}, "properties": {"title": "Station: Ubora Tower", "description": "Available Bikes: 12", "marker-color": "#00ff00", "marker-symbol": "bicycle", "marker-size": "medium", "station_id": "59"}}, {"type": "Feature", "geometry": {"type": "Point", "coordinates": [55.263159, 25.179929]}, "properties": {"title": "Station: Atria Tower", "description": "Available Bikes: 12", "marker-color": "#00ff00", "marker-symbol": "bicycle", "marker-size": "medium", "station_id": "60"}}, {"type": "Feature", "geometry": {"type": "Point", "coordinates": [55.2546287, 25.184538]}, "properties": {"title": "Station: Al Habtoor City", "description": "Available Bikes: 31", "marker-color": "#00ff00", "marker-symbol": "bicycle", "marker-size": "medium", "station_id": "61"}}, {"type": "Feature", "geometry": {"type": "Point", "coordinates": [55.275482, 25.190502]}, "properties": {"title": "Station: The Old Town Community", "description": "Available Bikes: 7", "marker-color": "#00ff00", "marker-symbol": "bicycle", "marker-size": "medium", "station_id": "62"}}, {"type": "Feature", "geometry": {"type": "Point", "coordinates": [55.273692, 25.19046]}, "properties": {"title": "Station: Vida Residences", "description": "Available Bikes: 9", "marker-color": "#00ff00", "marker-symbol": "bicycle", "marker-size": "medium", "station_id": "65"}}, {"type": "Feature", "geometry": {"type": "Point", "coordinates": [55.278904, 25.187982]}, "properties": {"title": "Station: SOUTH RIDGE", "description": "Available Bikes: 5", "marker-color": "#00ff00", "marker-symbol": "bicycle", "marker-size": "medium", "station_id": "66"}}, {"type": "Feature", "geometry": {"type": "Point", "coordinates": [55.280778, 25.19043]}, "properties": {"title": "Station: Burj Views", "description": "Available Bikes: 10", "marker-color": "#00ff00", "marker-symbol": "bicycle", "marker-size": "medium", "station_id": "68"}}, {"type": "Feature", "geometry": {"type": "Point", "coordinates": [55.292858, 25.246722]}, "properties": {"title": "Station: Mankhool Park", "description": "Available Bikes: 5", "marker-color": "#00ff00", "marker-symbol": "bicycle", "marker-size": "medium", "station_id": "70"}}, {"type": "Feature", "geometry": {"type": "Point", "coordinates": [55.2972071, 25.25757495]}, "properties": {"title": "Station: Al Fahidi", "description": "Available Bikes: 13", "marker-color": "#00ff00", "marker-symbol": "bicycle", "marker-size": "medium", "station_id": "71"}}, {"type": "Feature", "geometry": {"type": "Point", "coordinates": [55.298694, 25.253266]}, "properties": {"title": "Station: Al Baha Building", "description": "Available Bikes: 5", "marker-color": "#00ff00", "marker-symbol": "bicycle", "marker-size": "medium", "station_id": "72"}}, {"type": "Feature", "geometry": {"type": "Point", "coordinates": [55.304382, 25.255608]}, "properties": {"title": "Station: Burjuman Station", "description": "Available Bikes: 7", "marker-color": "#00ff00", "marker-symbol": "bicycle", "marker-size": "medium", "station_id": "76"}}, {"type": "Feature", "geometry": {"type": "Point", "coordinates": [55.2827109, 25.1957689]}, "properties": {"title": "Station: The Address Fountain View", "description": "Available Bikes: 10", "marker-color": "#00ff00", "marker-symbol": "bicycle", "marker-size": "medium", "station_id": "77"}}, {"type": "Feature", "geometry": {"type": "Point", "coordinates": [55.1368078, 25.0763764]}, "properties": {"title": "Station: Marina Quays", "description": "Available Bikes: 11", "marker-color": "#00ff00", "marker-symbol": "bicycle", "marker-size": "medium", "station_id": "79"}}, {"type": "Feature", "geometry": {"type": "Point", "coordinates": [55.302854, 25.238135]}, "properties": {"title": "Station: Al Karama Bus Station", "description": "Available Bikes: 9", "marker-color": "#00ff00", "marker-symbol": "bicycle", "marker-size": "medium", "station_id": "80"}}, {"type": "Feature", "geometry": {"type": "Point", "coordinates": [55.2736162, 25.2013248]}, "properties": {"title": "Station: Emaar Square", "description": "Available Bikes: 7", "marker-color": "#00ff00", "marker-symbol": "bicycle", "marker-size": "medium", "station_id": "81"}}, {"type": "Feature", "geometry": {"type": "Point", "coordinates": [55.30509, 25.240787]}, "properties": {"title": "Station: Karama Shopping Complex", "description": "Available Bikes: 9", "marker-color": "#00ff00", "marker-symbol": "bicycle", "marker-size": "medium", "station_id": "82"}}, {"type": "Feature", "geometry": {"type": "Point", "coordinates": [55.3448507, 24.8490692]}, "properties": {"title": "Station: Al Qudra", "description": "Available Bikes: 8", "marker-color": "#00ff00", "marker-symbol": "bicycle", "marker-size": "medium", "station_id": "84"}}, {"type": "Feature", "geometry": {"type": "Point", "coordinates": [55.280931, 25.192892]}, "properties": {"title": "Station: Dubai Mall / Blvd Point", "description": "Available Bikes: 3", "marker-color": "#00ff00", "marker-symbol": "bicycle", "marker-size": "medium", "station_id": "88"}}, {"type": "Feature", "geometry": {"type": "Point", "coordinates": [55.145627, 25.088031]}, "properties": {"title": "Station: Marriott Harbour", "description": "Available Bikes: 8", "marker-color": "#00ff00", "marker-symbol": "bicycle", "marker-size": "medium", "station_id": "89"}}, {"type": "Feature", "geometry": {"type": "Point", "coordinates": [55.270649, 25.197781]}, "properties": {"title": "Station: Burj Vista residences", "description": "Available Bikes: 13", "marker-color": "#00ff00", "marker-symbol": "bicycle", "marker-size": "medium", "station_id": "91"}}, {"type": "Feature", "geometry": {"type": "Point", "coordinates": [55.269725, 25.196011]}, "properties": {"title": "Station: Dubai  opera", "description": "Available Bikes: 10", "marker-color": "#00ff00", "marker-symbol": "bicycle", "marker-size": "medium", "station_id": "92"}}, {"type": "Feature", "geometry": {"type": "Point", "coordinates": [54.350087, 24.486103]}, "properties": {"title": "Station: AUH - ADIA HQ", "description": "Available Bikes: 1", "marker-color": "#00ff00", "marker-symbol": "bicycle", "marker-size": "medium", "station_id": "94"}}, {"type": "Feature", "geometry": {"type": "Point", "coordinates": [54.358364, 24.495664]}, "properties": {"title": "Station: AUH - Corniche East", "description": "Available Bikes: 7", "marker-color": "#00ff00", "marker-symbol": "bicycle", "marker-size": "medium", "station_id": "95"}}, {"type": "Feature", "geometry": {"type": "Point", "coordinates": [54.3763, 24.507333]}, "properties": {"title": "Station: AUH - Al Aryam Tower", "description": "Available Bikes: 1", "marker-color": "#00ff00", "marker-symbol": "bicycle", "marker-size": "medium", "station_id": "97"}}, {"type": "Feature", "geometry": {"type": "Point", "coordinates": [54.3411577, 24.4736005]}, "properties": {"title": "Station: AUH - Corniche Plaza", "description": "Available Bikes: 8", "marker-color": "#00ff00", "marker-symbol": "bicycle", "marker-size": "medium", "station_id": "98"}}, {"type": "Feature", "geometry": {"type": "Point", "coordinates": [54.328189, 24.46568]}, "properties": {"title": "Station: AUH - Nation Riviera", "description": "Available Bikes: 3", "marker-color": "#00ff00", "marker-symbol": "bicycle", "marker-size": "medium", "station_id": "108"}}, {"type": "Feature", "geometry": {"type": "Point", "coordinates": [54.318692, 24.456118]}, "properties": {"title": "Station: AUH - Rayhaan Rotana", "description": "Available Bikes: 3", "marker-color": "#00ff00", "marker-symbol": "bicycle", "marker-size": "medium", "station_id": "111"}}, {"type": "Feature", "geometry": {"type": "Point", "coordinates": [54.33451, 24.451202]}, "properties": {"title": "Station: AUH - Marasy", "description": "Available Bikes: 0", "marker-color": "#ff0000", "marker-symbol": "bicycle", "marker-size": "medium", "station_id": "113"}}, {"type": "Feature", "geometry": {"type": "Point", "coordinates": [54.373636, 24.496235]}, "properties": {"title": "Station: AUH - Hamdan - Salam", "description": "Available Bikes: 5", "marker-color": "#00ff00", "marker-symbol": "bicycle", "marker-size": "medium", "station_id": "114"}}, {"type": "Feature", "geometry": {"type": "Point", "coordinates": [54.356111, 24.48809]}, "properties": {"title": "Station: AUH - WTC", "description": "Available Bikes: 3", "marker-color": "#00ff00", "marker-symbol": "bicycle", "marker-size": "medium", "station_id": "116"}}, {"type": "Feature", "geometry": {"type": "Point", "coordinates": [54.366101, 24.49209]}, "properties": {"title": "Station: AUH - Al Yousuf Center", "description": "Available Bikes: 1", "marker-color": "#00ff00", "marker-symbol": "bicycle", "marker-size": "medium", "station_id": "117"}}, {"type": "Feature", "geometry": {"type": "Point", "coordinates": [54.408307, 24.493276]}, "properties": {"title": "Station: AUH - Gate Tower", "description": "Available Bikes: 3", "marker-color": "#00ff00", "marker-symbol": "bicycle", "marker-size": "medium", "station_id": "119"}}, {"type": "Feature", "geometry": {"type": "Point", "coordinates": [55.344472, 25.274972]}, "properties": {"title": "Station: Abu Hail Metro ", "description": "Available Bikes: 5", "marker-color": "#00ff00", "marker-symbol": "bicycle", "marker-size": "medium", "station_id": "127"}}, {"type": "Feature", "geometry": {"type": "Point", "coordinates": [55.137361, 25.073083]}, "properties": {"title": "Station: Azure Residences", "description": "Available Bikes: 7", "marker-color": "#00ff00", "marker-symbol": "bicycle", "marker-size": "medium", "station_id": "131"}}, {"type": "Feature", "geometry": {"type": "Point", "coordinates": [55.146083, 25.081444]}, "properties": {"title": "Station: Marina Diamond 5", "description": "Available Bikes: 6", "marker-color": "#00ff00", "marker-symbol": "bicycle", "marker-size": "medium", "station_id": "132"}}, {"type": "Feature", "geometry": {"type": "Point", "coordinates": [55.210278, 25.107972]}, "properties": {"title": "Station: Al Barsha 2 Park 1", "description": "Available Bikes: 9", "marker-color": "#00ff00", "marker-symbol": "bicycle", "marker-size": "medium", "station_id": "133"}}, {"type": "Feature", "geometry": {"type": "Point", "coordinates": [55.4358292077144, 25.2001871497845]}, "properties": {"title": "Station: School Of Research Science 1", "description": "Available Bikes: 2", "marker-color": "#00ff00", "marker-symbol": "bicycle", "marker-size": "medium", "station_id": "142"}}, {"type": "Feature", "geometry": {"type": "Point", "coordinates": [55.349889, 25.299778]}, "properties": {"title": "Station: Al Mamzar Beach 1", "description": "Available Bikes: 8", "marker-color": "#00ff00", "marker-symbol": "bicycle", "marker-size": "medium", "station_id": "160"}}, {"type": "Feature", "geometry": {"type": "Point", "coordinates": [55.347389, 25.305417]}, "properties": {"title": "Station: Al Mamzar Beach 2", "description": "Available Bikes: 5", "marker-color": "#00ff00", "marker-symbol": "bicycle", "marker-size": "medium", "station_id": "161"}}, {"type": "Feature", "geometry": {"type": "Point", "coordinates": [55.2916756, 25.2339599]}, "properties": {"title": "Station: Al Jaffiliya  Metro Station", "description": "Available Bikes: 2", "marker-color": "#00ff00", "marker-symbol": "bicycle", "marker-size": "medium", "station_id": "162"}}, {"type": "Feature", "geometry": {"type": "Point", "coordinates": [55.279722, 25.235083]}, "properties": {"title": "Station: Satwa Roundabout", "description": "Available Bikes: 2", "marker-color": "#00ff00", "marker-symbol": "bicycle", "marker-size": "medium", "station_id": "163"}}, {"type": "Feature", "geometry": {"type": "Point", "coordinates": [55.239583, 25.187333]}, "properties": {"title": "Station: Union Coop Hypermarket", "description": "Available Bikes: 7", "marker-color": "#00ff00", "marker-symbol": "bicycle", "marker-size": "medium", "station_id": "164"}}, {"type": "Feature", "geometry": {"type": "Point", "coordinates": [55.473722, 25.260833]}, "properties": {"title": "Station: Khawaneej Pond Park", "description": "Available Bikes: 8", "marker-color": "#00ff00", "marker-symbol": "bicycle", "marker-size": "medium", "station_id": "165"}}, {"type": "Feature", "geometry": {"type": "Point", "coordinates": [55.477028, 25.238917]}, "properties": {"title": "Station: Quranic Park Gate 2", "description": "Available Bikes: 7", "marker-color": "#00ff00", "marker-symbol": "bicycle", "marker-size": "medium", "station_id": "166"}}, {"type": "Feature", "geometry": {"type": "Point", "coordinates": [55.135056, 25.075889]}, "properties": {"title": "Station: Sahab Tower", "description": "Available Bikes: 11", "marker-color": "#00ff00", "marker-symbol": "bicycle", "marker-size": "medium", "station_id": "170"}}, {"type": "Feature", "geometry": {"type": "Point", "coordinates": [55.270194, 25.24075]}, "properties": {"title": "Station: Al Hudaiba", "description": "Available Bikes: 8", "marker-color": "#00ff00", "marker-symbol": "bicycle", "marker-size": "medium", "station_id": "174"}}, {"type": "Feature", "geometry": {"type": "Point", "coordinates": [55.240861, 25.202556]}, "properties": {"title": "Station: Four Seasons Jumeirah Road", "description": "Available Bikes: 5", "marker-color": "#00ff00", "marker-symbol": "bicycle", "marker-size": "medium", "station_id": "175"}}, {"type": "Feature", "geometry": {"type": "Point", "coordinates": [55.154333, 25.094361]}, "properties": {"title": "Station: Samsung Corporate Office", "description": "Available Bikes: 9", "marker-color": "#00ff00", "marker-symbol": "bicycle", "marker-size": "medium", "station_id": "177"}}, {"type": "Feature", "geometry": {"type": "Point", "coordinates": [55.163194, 25.1005]}, "properties": {"title": "Station: Innovation Hub", "description": "Available Bikes: 2", "marker-color": "#00ff00", "marker-symbol": "bicycle", "marker-size": "medium", "station_id": "178"}}, {"type": "Feature", "geometry": {"type": "Point", "coordinates": [55.168972, 25.102917]}, "properties": {"title": "Station: VISA HQ", "description": "Available Bikes: 6", "marker-color": "#00ff00", "marker-symbol": "bicycle", "marker-size": "medium", "station_id": "179"}}, {"type": "Feature", "geometry": {"type": "Point", "coordinates": [55.143417, 25.078361]}, "properties": {"title": "Station: Sukoon Tower", "description": "Available Bikes: 14", "marker-color": "#00ff00", "marker-symbol": "bicycle", "marker-size": "medium", "station_id": "184"}}, {"type": "Feature", "geometry": {"type": "Point", "coordinates": [55.136252, 25.071942]}, "properties": {"title": "Station: Emerald Residences", "description": "Available Bikes: 10", "marker-color": "#00ff00", "marker-symbol": "bicycle", "marker-size": "medium", "station_id": "187"}}, {"type": "Feature", "geometry": {"type": "Point", "coordinates": [55.148566, 25.086861]}, "properties": {"title": "Station: Marina Heights 2", "description": "Available Bikes: 8", "marker-color": "#00ff00", "marker-symbol": "bicycle", "marker-size": "medium", "station_id": "188"}}, {"type": "Feature", "geometry": {"type": "Point", "coordinates": [55.2175833, 25.1725278]}, "properties": {"title": "Station: Miraj Islamic art center", "description": "Available Bikes: 13", "marker-color": "#00ff00", "marker-symbol": "bicycle", "marker-size": "medium", "station_id": "193"}}, {"type": "Feature", "geometry": {"type": "Point", "coordinates": [55.150576, 25.079466]}, "properties": {"title": "Station: JLT Cluster U", "description": "Available Bikes: 6", "marker-color": "#00ff00", "marker-symbol": "bicycle", "marker-size": "medium", "station_id": "194"}}, {"type": "Feature", "geometry": {"type": "Point", "coordinates": [55.250889, 25.18675]}, "properties": {"title": "Station: Golden Villas", "description": "Available Bikes: 7", "marker-color": "#00ff00", "marker-symbol": "bicycle", "marker-size": "medium", "station_id": "196"}}, {"type": "Feature", "geometry": {"type": "Point", "coordinates": [55.267934, 25.20187]}, "properties": {"title": "Station: Burj Khalifa Metro station 2", "description": "Available Bikes: 8", "marker-color": "#00ff00", "marker-symbol": "bicycle", "marker-size": "medium", "station_id": "198"}}, {"type": "Feature", "geometry": {"type": "Point", "coordinates": [55.259889, 25.19075]}, "properties": {"title": "Station: Business Bay Metro Station", "description": "Available Bikes: 12", "marker-color": "#00ff00", "marker-symbol": "bicycle", "marker-size": "medium", "station_id": "199"}}, {"type": "Feature", "geometry": {"type": "Point", "coordinates": [55.276306, 25.249083]}, "properties": {"title": "Station: Wasl Port Views Residence 5", "description": "Available Bikes: 6", "marker-color": "#00ff00", "marker-symbol": "bicycle", "marker-size": "medium", "station_id": "200"}}, {"type": "Feature", "geometry": {"type": "Point", "coordinates": [55.2308889, 25.1927778]}, "properties": {"title": "Station: Jumeirah Beach Parking", "description": "Available Bikes: 19", "marker-color": "#00ff00", "marker-symbol": "bicycle", "marker-size": "medium", "station_id": "202"}}, {"type": "Feature", "geometry": {"type": "Point", "coordinates": [55.1708056, 25.1141111]}, "properties": {"title": "Station: Dubai College 2", "description": "Available Bikes: 11", "marker-color": "#00ff00", "marker-symbol": "bicycle", "marker-size": "medium", "station_id": "203"}}, {"type": "Feature", "geometry": {"type": "Point", "coordinates": [55.23225, 25.1925278]}, "properties": {"title": "Station: Ahmad Al Attar Mosque", "description": "Available Bikes: 22", "marker-color": "#00ff00", "marker-symbol": "bicycle", "marker-size": "medium", "station_id": "205"}}, {"type": "Feature", "geometry": {"type": "Point", "coordinates": [55.192806, 25.142]}, "properties": {"title": "Station: Jumeirah Beach Hotel", "description": "Available Bikes: 9", "marker-color": "#00ff00", "marker-symbol": "bicycle", "marker-size": "medium", "station_id": "206"}}, {"type": "Feature", "geometry": {"type": "Point", "coordinates": [55.2201667, 25.1754444]}, "properties": {"title": "Station: Jumeirah Road 2", "description": "Available Bikes: 12", "marker-color": "#00ff00", "marker-symbol": "bicycle", "marker-size": "medium", "station_id": "207"}}, {"type": "Feature", "geometry": {"type": "Point", "coordinates": [55.3027873, 25.2759291]}, "properties": {"title": "Station: Gold Souq Metro Station 2", "description": "Available Bikes: 8", "marker-color": "#00ff00", "marker-symbol": "bicycle", "marker-size": "medium", "station_id": "210"}}, {"type": "Feature", "geometry": {"type": "Point", "coordinates": [55.305417, 25.276767]}, "properties": {"title": "Station: Al Murar 1", "description": "Available Bikes: 3", "marker-color": "#00ff00", "marker-symbol": "bicycle", "marker-size": "medium", "station_id": "211"}}, {"type": "Feature", "geometry": {"type": "Point", "coordinates": [55.2160278, 25.1702222]}, "properties": {"title": "Station: MANARA ENOC 1", "description": "Available Bikes: 9", "marker-color": "#00ff00", "marker-symbol": "bicycle", "marker-size": "medium", "station_id": "212"}}, {"type": "Feature", "geometry": {"type": "Point", "coordinates": [55.2919722, 25.2624722]}, "properties": {"title": "Station: Al Fahidi St", "description": "Available Bikes: 16", "marker-color": "#00ff00", "marker-symbol": "bicycle", "marker-size": "medium", "station_id": "213"}}, {"type": "Feature", "geometry": {"type": "Point", "coordinates": [55.2279444, 25.1859444]}, "properties": {"title": "Station: Sikka 1", "description": "Available Bikes: 10", "marker-color": "#00ff00", "marker-symbol": "bicycle", "marker-size": "medium", "station_id": "214"}}, {"type": "Feature", "geometry": {"type": "Point", "coordinates": [55.339358, 25.219157]}, "properties": {"title": "Station: Creek Metro Station", "description": "Available Bikes: 5", "marker-color": "#00ff00", "marker-symbol": "bicycle", "marker-size": "medium", "station_id": "216"}}, {"type": "Feature", "geometry": {"type": "Point", "coordinates": [55.2313889, 25.1900833]}, "properties": {"title": "Station: Sikka 2", "description": "Available Bikes: 7", "marker-color": "#00ff00", "marker-symbol": "bicycle", "marker-size": "medium", "station_id": "217"}}, {"type": "Feature", "geometry": {"type": "Point", "coordinates": [55.3529444, 25.3079167]}, "properties": {"title": "Station: Al MAMZAR BEACH 3", "description": "Available Bikes: 6", "marker-color": "#00ff00", "marker-symbol": "bicycle", "marker-size": "medium", "station_id": "218"}}, {"type": "Feature", "geometry": {"type": "Point", "coordinates": [55.255583, 25.186306]}, "properties": {"title": "Station: JW Marriott", "description": "Available Bikes: 7", "marker-color": "#00ff00", "marker-symbol": "bicycle", "marker-size": "medium", "station_id": "220"}}, {"type": "Feature", "geometry": {"type": "Point", "coordinates": [55.357583, 25.234525]}, "properties": {"title": "Station: RTA H.Q", "description": "Available Bikes: 5", "marker-color": "#00ff00", "marker-symbol": "bicycle", "marker-size": "medium", "station_id": "221"}}, {"type": "Feature", "geometry": {"type": "Point", "coordinates": [55.138167, 25.063667]}, "properties": {"title": "Station: JLT CLUSTER N", "description": "Available Bikes: 10", "marker-color": "#00ff00", "marker-symbol": "bicycle", "marker-size": "medium", "station_id": "223"}}, {"type": "Feature", "geometry": {"type": "Point", "coordinates": [55.2463889, 25.21025]}, "properties": {"title": "Station: Sikka 3", "description": "Available Bikes: 5", "marker-color": "#00ff00", "marker-symbol": "bicycle", "marker-size": "medium", "station_id": "226"}}, {"type": "Feature", "geometry": {"type": "Point", "coordinates": [55.29725, 25.255111]}, "properties": {"title": "Station: Al Marjan Building", "description": "Available Bikes: 11", "marker-color": "#00ff00", "marker-symbol": "bicycle", "marker-size": "medium", "station_id": "228"}}, {"type": "Feature", "geometry": {"type": "Point", "coordinates": [55.295944, 25.251306]}, "properties": {"title": "Station: Al Daheri Building", "description": "Available Bikes: 8", "marker-color": "#00ff00", "marker-symbol": "bicycle", "marker-size": "medium", "station_id": "229"}}, {"type": "Feature", "geometry": {"type": "Point", "coordinates": [55.2925, 25.251667]}, "properties": {"title": "Station: Four Points Mankhool", "description": "Available Bikes: 16", "marker-color": "#00ff00", "marker-symbol": "bicycle", "marker-size": "medium", "station_id": "230"}}, {"type": "Feature", "geometry": {"type": "Point", "coordinates": [55.1653611, 25.1082222]}, "properties": {"title": "Station: Al Soufoh Tram", "description": "Available Bikes: 5", "marker-color": "#00ff00", "marker-symbol": "bicycle", "marker-size": "medium", "station_id": "232"}}, {"type": "Feature", "geometry": {"type": "Point", "coordinates": [55.2883889, 25.2648056]}, "properties": {"title": "Station: Al Ghubaiba Metro Station", "description": "Available Bikes: 4", "marker-color": "#00ff00", "marker-symbol": "bicycle", "marker-size": "medium", "station_id": "233"}}, {"type": "Feature", "geometry": {"type": "Point", "coordinates": [55.361578674321, 25.2779406453639]}, "properties": {"title": "Station: Stadium Metro Station", "description": "Available Bikes: 3", "marker-color": "#00ff00", "marker-symbol": "bicycle", "marker-size": "medium", "station_id": "234"}}, {"type": "Feature", "geometry": {"type": "Point", "coordinates": [55.364782, 25.276158]}, "properties": {"title": "Station: Al Islah Mosque", "description": "Available Bikes: 4", "marker-color": "#00ff00", "marker-symbol": "bicycle", "marker-size": "medium", "station_id": "235"}}, {"type": "Feature", "geometry": {"type": "Point", "coordinates": [55.3703611, 25.2728889]}, "properties": {"title": "Station: Al Nahda Metro Station", "description": "Available Bikes: 3", "marker-color": "#00ff00", "marker-symbol": "bicycle", "marker-size": "medium", "station_id": "236"}}, {"type": "Feature", "geometry": {"type": "Point", "coordinates": [55.367437, 25.274604]}, "properties": {"title": "Station: Al Bustan Residence", "description": "Available Bikes: 1", "marker-color": "#00ff00", "marker-symbol": "bicycle", "marker-size": "medium", "station_id": "237"}}, {"type": "Feature", "geometry": {"type": "Point", "coordinates": [55.166236, 25.102453]}, "properties": {"title": "Station: UoW Bus Stop", "description": "Available Bikes: 5", "marker-color": "#00ff00", "marker-symbol": "bicycle", "marker-size": "medium", "station_id": "239"}}, {"type": "Feature", "geometry": {"type": "Point", "coordinates": [55.264967, 25.1842]}, "properties": {"title": "Station: The Bayswater Tower", "description": "Available Bikes: 9", "marker-color": "#00ff00", "marker-symbol": "bicycle", "marker-size": "medium", "station_id": "240"}}, {"type": "Feature", "geometry": {"type": "Point", "coordinates": [55.244583, 25.188444]}, "properties": {"title": "Station: Tolerance Bridge 2", "description": "Available Bikes: 8", "marker-color": "#00ff00", "marker-symbol": "bicycle", "marker-size": "medium", "station_id": "242"}}, {"type": "Feature", "geometry": {"type": "Point", "coordinates": [55.249639, 25.1855]}, "properties": {"title": "Station: Safa Park Marine Transport", "description": "Available Bikes: 8", "marker-color": "#00ff00", "marker-symbol": "bicycle", "marker-size": "medium", "station_id": "243"}}, {"type": "Feature", "geometry": {"type": "Point", "coordinates": [55.285972, 25.18775]}, "properties": {"title": "Station: D-Marin Canal", "description": "Available Bikes: 9", "marker-color": "#00ff00", "marker-symbol": "bicycle", "marker-size": "medium", "station_id": "244"}}, {"type": "Feature", "geometry": {"type": "Point", "coordinates": [55.275217, 25.178229]}, "properties": {"title": "Station: Sobha Saphire Building", "description": "Available Bikes: 6", "marker-color": "#00ff00", "marker-symbol": "bicycle", "marker-size": "medium", "station_id": "246"}}, {"type": "Feature", "geometry": {"type": "Point", "coordinates": [55.291826, 25.269783]}, "properties": {"title": "Station: Al Shindagha  Museum 2", "description": "Available Bikes: 4", "marker-color": "#00ff00", "marker-symbol": "bicycle", "marker-size": "medium", "station_id": "249"}}, {"type": "Feature", "geometry": {"type": "Point", "coordinates": [55.256584, 25.18386]}, "properties": {"title": "Station: NOORA TOWER STATION", "description": "Available Bikes: 16", "marker-color": "#00ff00", "marker-symbol": "bicycle", "marker-size": "medium", "station_id": "251"}}, {"type": "Feature", "geometry": {"type": "Point", "coordinates": [55.277919, 25.235302]}, "properties": {"title": "Station: Satwa Roundabout 2", "description": "Available Bikes: 6", "marker-color": "#00ff00", "marker-symbol": "bicycle", "marker-size": "medium", "station_id": "252"}}, {"type": "Feature", "geometry": {"type": "Point", "coordinates": [55.275639, 25.237056]}, "properties": {"title": "Station: Dune Center", "description": "Available Bikes: 12", "marker-color": "#00ff00", "marker-symbol": "bicycle", "marker-size": "medium", "station_id": "253"}}, {"type": "Feature", "geometry": {"type": "Point", "coordinates": [55.235444, 25.195111]}, "properties": {"title": "Station: Canal Bridge", "description": "Available Bikes: 14", "marker-color": "#00ff00", "marker-symbol": "bicycle", "marker-size": "medium", "station_id": "254"}}, {"type": "Feature", "geometry": {"type": "Point", "coordinates": [55.199028, 25.152417]}, "properties": {"title": "Station: Umm Suqeim Mall ", "description": "Available Bikes: 11", "marker-color": "#00ff00", "marker-symbol": "bicycle", "marker-size": "medium", "station_id": "255"}}, {"type": "Feature", "geometry": {"type": "Point", "coordinates": [55.3033889, 25.2583333]}, "properties": {"title": "Station: Bastakia Bus Shelter", "description": "Available Bikes: 11", "marker-color": "#00ff00", "marker-symbol": "bicycle", "marker-size": "medium", "station_id": "256"}}, {"type": "Feature", "geometry": {"type": "Point", "coordinates": [55.3016944, 25.2624722]}, "properties": {"title": "Station: Al Fahidi Historical District", "description": "Available Bikes: 7", "marker-color": "#00ff00", "marker-symbol": "bicycle", "marker-size": "medium", "station_id": "257"}}, {"type": "Feature", "geometry": {"type": "Point", "coordinates": [55.3004662, 25.2444021]}, "properties": {"title": "Station: The Apple Community School\t", "description": "Available Bikes: 5", "marker-color": "#00ff00", "marker-symbol": "bicycle", "marker-size": "medium", "station_id": "258"}}, {"type": "Feature", "geometry": {"type": "Point", "coordinates": [55.3013114, 25.2409207]}, "properties": {"title": "Station: Karama Center", "description": "Available Bikes: 7", "marker-color": "#00ff00", "marker-symbol": "bicycle", "marker-size": "medium", "station_id": "259"}}, {"type": "Feature", "geometry": {"type": "Point", "coordinates": [55.2996944, 25.2379167]}, "properties": {"title": "Station: Frame Bridge", "description": "Available Bikes: 4", "marker-color": "#00ff00", "marker-symbol": "bicycle", "marker-size": "medium", "station_id": "260"}}, {"type": "Feature", "geometry": {"type": "Point", "coordinates": [55.301083, 25.250722]}, "properties": {"title": "Station: Centrepoint Burjuman", "description": "Available Bikes: 3", "marker-color": "#00ff00", "marker-symbol": "bicycle", "marker-size": "medium", "station_id": "261"}}, {"type": "Feature", "geometry": {"type": "Point", "coordinates": [55.27425, 25.2465]}, "properties": {"title": "Station: Wasl Port Views Residences 1", "description": "Available Bikes: 5", "marker-color": "#00ff00", "marker-symbol": "bicycle", "marker-size": "medium", "station_id": "264"}}, {"type": "Feature", "geometry": {"type": "Point", "coordinates": [55.2897222, 25.2687778]}, "properties": {"title": "Station: Al Shindagha Museum 1", "description": "Available Bikes: 4", "marker-color": "#00ff00", "marker-symbol": "bicycle", "marker-size": "medium", "station_id": "265"}}, {"type": "Feature", "geometry": {"type": "Point", "coordinates": [55.2971667, 25.2753611]}, "properties": {"title": "Station: Moza Plaza", "description": "Available Bikes: 1", "marker-color": "#00ff00", "marker-symbol": "bicycle", "marker-size": "medium", "station_id": "266"}}, {"type": "Feature", "geometry": {"type": "Point", "coordinates": [55.300639, 25.255472]}, "properties": {"title": "Station: West Zone Burjuman", "description": "Available Bikes: 12", "marker-color": "#00ff00", "marker-symbol": "bicycle", "marker-size": "medium", "station_id": "267"}}, {"type": "Feature", "geometry": {"type": "Point", "coordinates": [55.300528, 25.277556]}, "properties": {"title": "Station: Wyndham Hotel", "description": "Available Bikes: 9", "marker-color": "#00ff00", "marker-symbol": "bicycle", "marker-size": "medium", "station_id": "270"}}, {"type": "Feature", "geometry": {"type": "Point", "coordinates": [55.3405, 25.216778]}, "properties": {"title": "Station: Al Jaddaf Marine Transport", "description": "Available Bikes: 1", "marker-color": "#00ff00", "marker-symbol": "bicycle", "marker-size": "medium", "station_id": "271"}}, {"type": "Feature", "geometry": {"type": "Point", "coordinates": [55.183028, 25.126694]}, "properties": {"title": "Station: Al Saud Street 1-2", "description": "Available Bikes: 12", "marker-color": "#00ff00", "marker-symbol": "bicycle", "marker-size": "medium", "station_id": "272"}}, {"type": "Feature", "geometry": {"type": "Point", "coordinates": [55.264566, 25.207412]}, "properties": {"title": "Station: Canada University Dubai", "description": "Available Bikes: 10", "marker-color": "#00ff00", "marker-symbol": "bicycle", "marker-size": "medium", "station_id": "273"}}, {"type": "Feature", "geometry": {"type": "Point", "coordinates": [55.262956, 25.200599]}, "properties": {"title": "Station: DEWA Al Wasl Bus Stop", "description": "Available Bikes: 10", "marker-color": "#00ff00", "marker-symbol": "bicycle", "marker-size": "medium", "station_id": "274"}}, {"type": "Feature", "geometry": {"type": "Point", "coordinates": [55.264444, 25.206278]}, "properties": {"title": "Station: Citywalk Building 3A", "description": "Available Bikes: 5", "marker-color": "#00ff00", "marker-symbol": "bicycle", "marker-size": "medium", "station_id": "276"}}, {"type": "Feature", "geometry": {"type": "Point", "coordinates": [55.264086975056, 25.2044916031078]}, "properties": {"title": "Station: Coca Cola Stadium", "description": "Available Bikes: 5", "marker-color": "#00ff00", "marker-symbol": "bicycle", "marker-size": "medium", "station_id": "277"}}, {"type": "Feature", "geometry": {"type": "Point", "coordinates": [55.191417, 25.14]}, "properties": {"title": "Station: The Mall", "description": "Available Bikes: 9", "marker-color": "#00ff00", "marker-symbol": "bicycle", "marker-size": "medium", "station_id": "278"}}, {"type": "Feature", "geometry": {"type": "Point", "coordinates": [55.42757, 25.183056]}, "properties": {"title": "Station: Al Warqa Station", "description": "Available Bikes: 5", "marker-color": "#00ff00", "marker-symbol": "bicycle", "marker-size": "medium", "station_id": "279"}}, {"type": "Feature", "geometry": {"type": "Point", "coordinates": [55.298306, 25.191333]}, "properties": {"title": "Station: Design District Marine Transport Station", "description": "Available Bikes: 8", "marker-color": "#00ff00", "marker-symbol": "bicycle", "marker-size": "medium", "station_id": "280"}}, {"type": "Feature", "geometry": {"type": "Point", "coordinates": [55.269071, 25.187406]}, "properties": {"title": "Station: Bay Walk Canal 2", "description": "Available Bikes: 4", "marker-color": "#00ff00", "marker-symbol": "bicycle", "marker-size": "medium", "station_id": "283"}}, {"type": "Feature", "geometry": {"type": "Point", "coordinates": [55.289074, 25.221947]}, "properties": {"title": "Station: Convention Center", "description": "Available Bikes: 6", "marker-color": "#00ff00", "marker-symbol": "bicycle", "marker-size": "medium", "station_id": "292"}}, {"type": "Feature", "geometry": {"type": "Point", "coordinates": [55.291569, 25.225418]}, "properties": {"title": "Station: Za'Abeel Hall Entrance ", "description": "Available Bikes: 7", "marker-color": "#00ff00", "marker-symbol": "bicycle", "marker-size": "medium", "station_id": "293"}}, {"type": "Feature", "geometry": {"type": "Point", "coordinates": [55.227, 25.155639]}, "properties": {"title": "Station: Al safa Metro station 2 ", "description": "Available Bikes: 3", "marker-color": "#00ff00", "marker-symbol": "bicycle", "marker-size": "medium", "station_id": "294"}}, {"type": "Feature", "geometry": {"type": "Point", "coordinates": [55.3409588, 25.2436106]}, "properties": {"title": "Station: Jumeriah Creekside Hotel", "description": "Available Bikes: 4", "marker-color": "#00ff00", "marker-symbol": "bicycle", "marker-size": "medium", "station_id": "295"}}, {"type": "Feature", "geometry": {"type": "Point", "coordinates": [55.3403576, 25.249141]}, "properties": {"title": "Station: GGICO Metro station ", "description": "Available Bikes: 4", "marker-color": "#00ff00", "marker-symbol": "bicycle", "marker-size": "medium", "station_id": "296"}}, {"type": "Feature", "geometry": {"type": "Point", "coordinates": [55.442028, 25.22475]}, "properties": {"title": "Station: Mirdif Hills", "description": "Available Bikes: 4", "marker-color": "#00ff00", "marker-symbol": "bicycle", "marker-size": "medium", "station_id": "297"}}, {"type": "Feature", "geometry": {"type": "Point", "coordinates": [55.415602, 25.1755419]}, "properties": {"title": "Station: Dragon Mart Station ", "description": "Available Bikes: 3", "marker-color": "#00ff00", "marker-symbol": "bicycle", "marker-size": "medium", "station_id": "298"}}, {"type": "Feature", "geometry": {"type": "Point", "coordinates": [55.221516, 25.1564127]}, "properties": {"title": "Station: Al Safa 2 Park ", "description": "Available Bikes: 2", "marker-color": "#00ff00", "marker-symbol": "bicycle", "marker-size": "medium", "station_id": "299"}}, {"type": "Feature", "geometry": {"type": "Point", "coordinates": [55.3649518, 25.2386731]}, "properties": {"title": "Station: Emirates Metro Station", "description": "Available Bikes: 4", "marker-color": "#00ff00", "marker-symbol": "bicycle", "marker-size": "medium", "station_id": "301"}}, {"type": "Feature", "geometry": {"type": "Point", "coordinates": [55.450833, 25.229944]}, "properties": {"title": "Station: Mushrif Park Gate North", "description": "Available Bikes: 7", "marker-color": "#00ff00", "marker-symbol": "bicycle", "marker-size": "medium", "station_id": "302"}}, {"type": "Feature", "geometry": {"type": "Point", "coordinates": [55.328243, 25.264771]}, "properties": {"title": "Station: Al Muraqqabat Road 2", "description": "Available Bikes: 5", "marker-color": "#00ff00", "marker-symbol": "bicycle", "marker-size": "medium", "station_id": "303"}}, {"type": "Feature", "geometry": {"type": "Point", "coordinates": [55.413694, 25.122778]}, "properties": {"title": "Station: KnowledgeFund Parking", "description": "Available Bikes: 2", "marker-color": "#00ff00", "marker-symbol": "bicycle", "marker-size": "medium", "station_id": "304"}}, {"type": "Feature", "geometry": {"type": "Point", "coordinates": [55.420694, 25.128639]}, "properties": {"title": "Station: Academic City Accommodation", "description": "Available Bikes: 11", "marker-color": "#00ff00", "marker-symbol": "bicycle", "marker-size": "medium", "station_id": "307"}}, {"type": "Feature", "geometry": {"type": "Point", "coordinates": [55.315145, 25.266542]}, "properties": {"title": "Station: Union Metro Station", "description": "Available Bikes: 4", "marker-color": "#00ff00", "marker-symbol": "bicycle", "marker-size": "medium", "station_id": "308"}}, {"type": "Feature", "geometry": {"type": "Point", "coordinates": [55.143889, 24.961769]}, "properties": {"title": "Station: Residences 4c Expo Village", "description": "Available Bikes: 0", "marker-color": "#ff0000", "marker-symbol": "bicycle", "marker-size": "medium", "station_id": "352"}}, {"type": "Feature", "geometry": {"type": "Point", "coordinates": [55.1452, 24.962921]}, "properties": {"title": "Station: Residences 1A Expo Village", "description": "Available Bikes: 3", "marker-color": "#00ff00", "marker-symbol": "bicycle", "marker-size": "medium", "station_id": "363"}}, {"type": "Feature", "geometry": {"type": "Point", "coordinates": [55.278611, 25.218778]}, "properties": {"title": "Station: EMIRATES ISLAMIC BANK", "description": "Available Bikes: 3", "marker-color": "#00ff00", "marker-symbol": "bicycle", "marker-size": "medium", "station_id": "376"}}, {"type": "Feature", "geometry": {"type": "Point", "coordinates": [55.28487, 25.22185]}, "properties": {"title": "Station: One Central DTWC", "description": "Available Bikes: 3", "marker-color": "#00ff00", "marker-symbol": "bicycle", "marker-size": "medium", "station_id": "377"}}, {"type": "Feature", "geometry": {"type": "Point", "coordinates": [55.21347, 25.0930867]}, "properties": {"title": "Station: Al Barsha Park 3", "description": "Available Bikes: 6", "marker-color": "#00ff00", "marker-symbol": "bicycle", "marker-size": "medium", "station_id": "385"}}, {"type": "Feature", "geometry": {"type": "Point", "coordinates": [55.410667, 25.199194]}, "properties": {"title": "Station: LULU HYPERMARKET AL WARQA", "description": "Available Bikes: 2", "marker-color": "#00ff00", "marker-symbol": "bicycle", "marker-size": "medium", "station_id": "389"}}, {"type": "Feature", "geometry": {"type": "Point", "coordinates": [55.220748, 25.178616]}, "properties": {"title": "Station: Kite Surf and Beach ", "description": "Available Bikes: 15", "marker-color": "#00ff00", "marker-symbol": "bicycle", "marker-size": "medium", "station_id": "390"}}, {"type": "Feature", "geometry": {"type": "Point", "coordinates": [55.269976, 25.222919]}, "properties": {"title": "Station: KHADRI MOSQUE", "description": "Available Bikes: 7", "marker-color": "#00ff00", "marker-symbol": "bicycle", "marker-size": "medium", "station_id": "401"}}, {"type": "Feature", "geometry": {"type": "Point", "coordinates": [55.203439, 25.097227]}, "properties": {"title": "Station: Al Barsha Mall", "description": "Available Bikes: 7", "marker-color": "#00ff00", "marker-symbol": "bicycle", "marker-size": "medium", "station_id": "403"}}, {"type": "Feature", "geometry": {"type": "Point", "coordinates": [55.206182, 25.159774]}, "properties": {"title": "Station: Filli Cafe Kite Beach", "description": "Available Bikes: 10", "marker-color": "#00ff00", "marker-symbol": "bicycle", "marker-size": "medium", "station_id": "404"}}, {"type": "Feature", "geometry": {"type": "Point", "coordinates": [55.259167, 25.2285]}, "properties": {"title": "Station: LA MER BEACH", "description": "Available Bikes: 6", "marker-color": "#00ff00", "marker-symbol": "bicycle", "marker-size": "medium", "station_id": "406"}}, {"type": "Feature", "geometry": {"type": "Point", "coordinates": [55.198583, 25.114972]}, "properties": {"title": "Station: EMERALD BARSHA 1", "description": "Available Bikes: 9", "marker-color": "#00ff00", "marker-symbol": "bicycle", "marker-size": "medium", "station_id": "407"}}, {"type": "Feature", "geometry": {"type": "Point", "coordinates": [55.329444, 25.2795]}, "properties": {"title": "Station: Hor Al Anz Turnoff 1", "description": "Available Bikes: 5", "marker-color": "#00ff00", "marker-symbol": "bicycle", "marker-size": "medium", "station_id": "408"}}]}